[{"OBJECT_NAME":"STARLINK-6249","OBJECT_ID":"2023-065AQ","EPOCH":"2026-03-09T22:00:01.999584","MEAN_MOTION":15.13259741,"ECCENTRICITY":0.00026279,"INCLINATION":43.0007,"RA_OF_ASC_NODE":221.7072,"ARG_OF_PERICENTER":261.9718,"MEAN_ANOMALY":105.155,"EPHEMERIS_TYPE":0,"CLASSIFICATION_TYPE":"U","NORAD_CAT_ID":56541,"ELEMENT_SET_NO":999,"REV_AT_EPOCH":572,"BSTAR":0.0064157351,"MEAN_MOTION_DOT":0.0011783,"MEAN_MOTION_DDOT":0},{"OBJECT_NAME":"OBJECT G","OBJECT_ID":"2026-027G","EPOCH":"2026-03-09T21:53:37.288032","MEAN_MOTION":15.12145257,"ECCENTRICITY":0.00120269,"INCLINATION":97.4906,"RA_OF_ASC_NODE":197.8999,"ARG_OF_PERICENTER":227.3105,"MEAN_ANOMALY":132.7114,"EPHEMERIS_TYPE":0,"CLASSIFICATION_TYPE":"U","NORAD_CAT_ID":67752,"ELEMENT_SET_NO":999,"REV_AT_EPOCH":389,"BSTAR":0.00053594907,"MEAN_MOTION_DOT":9.195e-5,"MEAN_MOTION_DDOT":0}]
